[{"OBJECT_NAME":"STARLINK-35284","OBJECT_ID":"2025-216H","EPOCH":"2025-12-28T02:53:06.657216","MEAN_MOTION":15.30213938,"ECCENTRICITY":0.00016496,"INCLINATION":53.1612,"RA_OF_ASC_NODE":305.4973,"ARG_OF_PERICENTER":47.4946,"MEAN_ANOMALY":312.6194,"EPHEMERIS_TYPE":0,"CLASSIFICATION_TYPE":"U","NORAD_CAT_ID":65741,"ELEMENT_SET_NO":999,"REV_AT_EPOCH":1558,"BSTAR":0.001485263,"MEAN_MOTION_DOT":0.0004391,"MEAN_MOTION_DDOT":0},{"OBJECT_NAME":"STARLINK-35316","OBJECT_ID":"2025-216J","EPOCH":"2025-12-28T04:07:24.325248","MEAN_MOTION":15.30214373,"ECCENTRICITY":0.00011325,"INCLINATION":53.1616,"RA_OF_ASC_NODE":305.1066,"ARG_OF_PERICENTER":102.3974,"MEAN_ANOMALY":257.7154,"EPHEMERIS_TYPE":0,"CLASSIFICATION_TYPE":"U","NORAD_CAT_ID":65742,"ELEMENT_SET_NO":999,"REV_AT_EPOCH":1451,"BSTAR":0.0016489851,"MEAN_MOTION_DOT":0.00048822,"MEAN_MOTION_DDOT":0},{"OBJECT_NAME":"STARLINK-35319","OBJECT_ID":"2025-216K","EPOCH":"2025-12-28T06:28:24.164832","MEAN_MOTION":15.3021209,"ECCENTRICITY":0.00012428,"INCLINATION":53.1595,"RA_OF_ASC_NODE":304.2906,"ARG_OF_PERICENTER":74.9591,"MEAN_ANOMALY":285.1548,"EPHEMERIS_TYPE":0,"CLASSIFICATION_TYPE":"U","NORAD_CAT_ID":65743,"ELEMENT_SET_NO":999,"REV_AT_EPOCH":1566,"BSTAR":0.001734375,"MEAN_MOTION_DOT":0.00051383,"MEAN_MOTION_DDOT":0},{"OBJECT_NAME":"STARLINK-35173","OBJECT_ID":"2025-216L","EPOCH":"2025-12-28T05:14:06.374112","MEAN_MOTION":15.30204076,"ECCENTRICITY":0.00013605,"INCLINATION":53.1589,"RA_OF_ASC_NODE":304.6824,"ARG_OF_PERICENTER":84.2234,"MEAN_ANOMALY":275.8922,"EPHEMERIS_TYPE":0,"CLASSIFICATION_TYPE":"U","NORAD_CAT_ID":65744,"ELEMENT_SET_NO":999,"REV_AT_EPOCH":1565,"BSTAR":0.0016128378,"MEAN_MOTION_DOT":0.00047722,"MEAN_MOTION_DDOT":0},{"OBJECT_NAME":"STARLINK-34808","OBJECT_ID":"2025-216M","EPOCH":"2025-12-28T01:37:07.237632","MEAN_MOTION":15.30200449,"ECCENTRICITY":0.00015638,"INCLINATION":53.1602,"RA_OF_ASC_NODE":305.1633,"ARG_OF_PERICENTER":87.9044,"MEAN_ANOMALY":272.2136,"EPHEMERIS_TYPE":0,"CLASSIFICATION_TYPE":"U","NORAD_CAT_ID":65745,"ELEMENT_SET_NO":999,"REV_AT_EPOCH":1555,"BSTAR":0.0015431375,"MEAN_MOTION_DOT":0.00045626,"MEAN_MOTION_DDOT":0},{"OBJECT_NAME":"STARLINK-34704","OBJECT_ID":"2025-216N","EPOCH":"2025-12-28T05:59:41.935488","MEAN_MOTION":15.30235706,"ECCENTRICITY":0.00010448,"INCLINATION":53.1617,"RA_OF_ASC_NODE":304.877,"ARG_OF_PERICENTER":69.0415,"MEAN_ANOMALY":291.0698,"EPHEMERIS_TYPE":0,"CLASSIFICATION_TYPE":"U","NORAD_CAT_ID":65746,"ELEMENT_SET_NO":999,"REV_AT_EPOCH":1559,"BSTAR":0.0015820587,"MEAN_MOTION_DOT":0.00046844,"MEAN_MOTION_DDOT":0},{"OBJECT_NAME":"STARLINK-35214","OBJECT_ID":"2025-216P","EPOCH":"2025-12-28T05:39:56.428128","MEAN_MOTION":15.30221031,"ECCENTRICITY":0.000148,"INCLINATION":53.1612,"RA_OF_ASC_NODE":304.7915,"ARG_OF_PERICENTER":76.2537,"MEAN_ANOMALY":283.8629,"EPHEMERIS_TYPE":0,"CLASSIFICATION_TYPE":"U","NORAD_CAT_ID":65747,"ELEMENT_SET_NO":999,"REV_AT_EPOCH":1560,"BSTAR":0.0016412163,"MEAN_MOTION_DOT":0.00048599,"MEAN_MOTION_DDOT":0},{"OBJECT_NAME":"STARLINK-35265","OBJECT_ID":"2025-216Q","EPOCH":"2025-12-28T02:39:25.876224","MEAN_MOTION":15.30207375,"ECCENTRICITY":0.00015406,"INCLINATION":53.1608,"RA_OF_ASC_NODE":305.4333,"ARG_OF_PERICENTER":87.888,"MEAN_ANOMALY":272.2297,"EPHEMERIS_TYPE":0,"CLASSIFICATION_TYPE":"U","NORAD_CAT_ID":65748,"ELEMENT_SET_NO":999,"REV_AT_EPOCH":1450,"BSTAR":0.00065232779,"MEAN_MOTION_DOT":0.00019015,"MEAN_MOTION_DDOT":0},{"OBJECT_NAME":"STARLINK-35288","OBJECT_ID":"2025-216R","EPOCH":"2025-12-28T04:02:51.039456","MEAN_MOTION":15.30195413,"ECCENTRICITY":0.00016514,"INCLINATION":53.1613,"RA_OF_ASC_NODE":305.0868,"ARG_OF_PERICENTER":64.4097,"MEAN_ANOMALY":295.7074,"EPHEMERIS_TYPE":0,"CLASSIFICATION_TYPE":"U","NORAD_CAT_ID":65749,"ELEMENT_SET_NO":999,"REV_AT_EPOCH":1556,"BSTAR":0.0011429899,"MEAN_MOTION_DOT":0.00033642,"MEAN_MOTION_DDOT":0},{"OBJECT_NAME":"STARLINK-35165","OBJECT_ID":"2025-216S","EPOCH":"2025-12-28T05:18:39.803328","MEAN_MOTION":15.30209268,"ECCENTRICITY":0.0001023,"INCLINATION":53.1593,"RA_OF_ASC_NODE":304.7004,"ARG_OF_PERICENTER":108.5605,"MEAN_ANOMALY":251.5507,"EPHEMERIS_TYPE":0,"CLASSIFICATION_TYPE":"U","NORAD_CAT_ID":65750,"ELEMENT_SET_NO":999,"REV_AT_EPOCH":1557,"BSTAR":0.0010118564,"MEAN_MOTION_DOT":0.00029738,"MEAN_MOTION_DDOT":0},{"OBJECT_NAME":"STARLINK-35260","OBJECT_ID":"2025-216T","EPOCH":"2025-12-28T05:09:32.771232","MEAN_MOTION":15.30209328,"ECCENTRICITY":0.00012163,"INCLINATION":53.159,"RA_OF_ASC_NODE":304.6596,"ARG_OF_PERICENTER":87.0384,"MEAN_ANOMALY":273.0756,"EPHEMERIS_TYPE":0,"CLASSIFICATION_TYPE":"U","NORAD_CAT_ID":65751,"ELEMENT_SET_NO":999,"REV_AT_EPOCH":1560,"BSTAR":0.0014126255,"MEAN_MOTION_DOT":0.00041726,"MEAN_MOTION_DDOT":0},{"OBJECT_NAME":"STARLINK-34893","OBJECT_ID":"2025-216U","EPOCH":"2025-12-28T05:56:39.343776","MEAN_MOTION":15.30209341,"ECCENTRICITY":0.00012303,"INCLINATION":53.1608,"RA_OF_ASC_NODE":304.8696,"ARG_OF_PERICENTER":91.9078,"MEAN_ANOMALY":268.2063,"EPHEMERIS_TYPE":0,"CLASSIFICATION_TYPE":"U","NORAD_CAT_ID":65752,"ELEMENT_SET_NO":999,"REV_AT_EPOCH":1557,"BSTAR":0.0017495552,"MEAN_MOTION_DOT":0.00051835,"MEAN_MOTION_DDOT":0},{"OBJECT_NAME":"STARLINK-34894","OBJECT_ID":"2025-216V","EPOCH":"2025-12-28T05:27:46.988352","MEAN_MOTION":15.30194848,"ECCENTRICITY":0.00011919,"INCLINATION":53.1594,"RA_OF_ASC_NODE":304.7428,"ARG_OF_PERICENTER":96.5245,"MEAN_ANOMALY":263.5891,"EPHEMERIS_TYPE":0,"CLASSIFICATION_TYPE":"U","NORAD_CAT_ID":65753,"ELEMENT_SET_NO":999,"REV_AT_EPOCH":1557,"BSTAR":0.0011479151,"MEAN_MOTION_DOT":0.00033788,"MEAN_MOTION_DDOT":0},{"OBJECT_NAME":"STARLINK-35287","OBJECT_ID":"2025-216W","EPOCH":"2025-12-28T04:49:47.518752","MEAN_MOTION":15.30200581,"ECCENTRICITY":0.00012975,"INCLINATION":53.1596,"RA_OF_ASC_NODE":304.5722,"ARG_OF_PERICENTER":85.5805,"MEAN_ANOMALY":274.5344,"EPHEMERIS_TYPE":0,"CLASSIFICATION_TYPE":"U","NORAD_CAT_ID":65754,"ELEMENT_SET_NO":999,"REV_AT_EPOCH":1556,"BSTAR":0.0011107768,"MEAN_MOTION_DOT":0.00032684,"MEAN_MOTION_DDOT":0},{"OBJECT_NAME":"STARLINK-35294","OBJECT_ID":"2025-216X","EPOCH":"2025-12-28T05:00:25.714944","MEAN_MOTION":15.30208566,"ECCENTRICITY":0.00011459,"INCLINATION":53.158,"RA_OF_ASC_NODE":304.6208,"ARG_OF_PERICENTER":73.8386,"MEAN_ANOMALY":286.2741,"EPHEMERIS_TYPE":0,"CLASSIFICATION_TYPE":"U","NORAD_CAT_ID":65755,"ELEMENT_SET_NO":999,"REV_AT_EPOCH":1560,"BSTAR":0.0019534549,"MEAN_MOTION_DOT":0.00057964,"MEAN_MOTION_DDOT":0},{"OBJECT_NAME":"STARLINK-35275","OBJECT_ID":"2025-216Y","EPOCH":"2025-12-28T02:47:01.659552","MEAN_MOTION":15.30237886,"ECCENTRICITY":0.00013389,"INCLINATION":53.161,"RA_OF_ASC_NODE":305.4615,"ARG_OF_PERICENTER":84.7423,"MEAN_ANOMALY":275.3731,"EPHEMERIS_TYPE":0,"CLASSIFICATION_TYPE":"U","NORAD_CAT_ID":65756,"ELEMENT_SET_NO":999,"REV_AT_EPOCH":1558,"BSTAR":0.0015066493,"MEAN_MOTION_DOT":0.00044584,"MEAN_MOTION_DDOT":0}]
