STARLINK-35284          
1 65741U 25216H   25362.12021594  .00043910  00000+0  14853-2 0  9990
2 65741  53.1612 305.4973 0001649  47.4946 312.6194 15.30213938 15588
STARLINK-35316          
1 65742U 25216J   25362.17180932  .00048822  00000+0  16490-2 0  9994
2 65742  53.1616 305.1066 0001132 102.3974 257.7154 15.30214373 14513
STARLINK-35319          
1 65743U 25216K   25362.26972413  .00051383  00000+0  17344-2 0  9993
2 65743  53.1595 304.2906 0001242  74.9591 285.1548 15.30212090 15667
STARLINK-35173          
1 65744U 25216L   25362.21812933  .00047722  00000+0  16128-2 0  9990
2 65744  53.1589 304.6824 0001360  84.2234 275.8922 15.30204076 15659
STARLINK-34808          
1 65745U 25216M   25362.06744488  .00045626  00000+0  15431-2 0  9990
2 65745  53.1602 305.1633 0001563  87.9044 272.2136 15.30200449 15551
STARLINK-34704          
1 65746U 25216N   25362.24979092  .00046844  00000+0  15821-2 0  9998
2 65746  53.1617 304.8770 0001044  69.0415 291.0698 15.30235706 15593
STARLINK-35214          
1 65747U 25216P   25362.23606977  .00048599  00000+0  16412-2 0  9993
2 65747  53.1612 304.7915 0001480  76.2537 283.8629 15.30221031 15609
STARLINK-35265          
1 65748U 25216Q   25362.11071616  .00019015  00000+0  65233-3 0  9994
2 65748  53.1608 305.4333 0001540  87.8880 272.2297 15.30207375 14509
STARLINK-35288          
1 65749U 25216R   25362.16864629  .00033642  00000+0  11430-2 0  9995
2 65749  53.1613 305.0868 0001651  64.4097 295.7074 15.30195413 15568
STARLINK-35165          
1 65750U 25216S   25362.22129402  .00029738  00000+0  10119-2 0  9991
2 65750  53.1593 304.7004 0001023 108.5605 251.5507 15.30209268 15579
STARLINK-35260          
1 65751U 25216T   25362.21496263  .00041726  00000+0  14126-2 0  9996
2 65751  53.1590 304.6596 0001216  87.0384 273.0756 15.30209328 15607
STARLINK-34893          
1 65752U 25216U   25362.24767759  .00051835  00000+0  17496-2 0  9996
2 65752  53.1608 304.8696 0001230  91.9078 268.2063 15.30209341 15579
STARLINK-34894          
1 65753U 25216V   25362.22762718  .00033788  00000+0  11479-2 0  9997
2 65753  53.1594 304.7428 0001191  96.5245 263.5891 15.30194848 15571
STARLINK-35287          
1 65754U 25216W   25362.20124443  .00032684  00000+0  11108-2 0  9996
2 65754  53.1596 304.5722 0001297  85.5805 274.5344 15.30200581 15562
STARLINK-35294          
1 65755U 25216X   25362.20863096  .00057964  00000+0  19535-2 0  9991
2 65755  53.1580 304.6208 0001145  73.8386 286.2741 15.30208566 15609
STARLINK-35275          
1 65756U 25216Y   25362.11599143  .00044584  00000+0  15066-2 0  9990
2 65756  53.1610 305.4615 0001338  84.7423 275.3731 15.30237886 15584
